{
  "type": "FeatureCollection",
  "features": [
    {
      "type": "Feature",
      "properties": {
        "norad_id": 24946,
        "name": "IRIDIUM 33",
        "group": "iridium-33-debris",
        "lat": -45.6707495434621,
        "lon": 58.96787796223492,
        "alt_km": 787.3291641319202,
        "timestamp": "2025-12-25T22:42:17.397978+00:00",
        "meta_object_name": "IRIDIUM 33",
        "meta_object_id": "1997-051C",
        "meta_epoch": "2025-12-25T06:11:00.134016",
        "meta_mean_motion": 14.35045823,
        "meta_eccentricity": 0.0008508,
        "meta_inclination": 86.3857,
        "meta_ra_of_asc_node": 62.9667,
        "meta_arg_of_pericenter": 159.9967,
        "meta_mean_anomaly": 200.1564,
        "meta_ephemeris_type": 0,
        "meta_classification_type": "U",
        "meta_norad_cat_id": 24946,
        "meta_element_set_no": 999,
        "meta_rev_at_epoch": 48014,
        "meta_bstar": 0.00011524,
        "meta_mean_motion_dot": 3.48e-06,
        "meta_mean_motion_ddot": 0,
        "tle_line1": "1 24946U 97051C   25359.25764044  .00000348  00000+0  11524-3 0  9993",
        "tle_line2": "2 24946  86.3857  62.9667 0008508 159.9967 200.1564 14.35045823480147"
      },
      "geometry": {
        "type": "Point",
        "coordinates": [
          58.96787796223492,
          -45.6707495434621
        ]
      }
    },
    {
      "type": "Feature",
      "properties": {
        "norad_id": 33773,
        "name": "IRIDIUM 33 DEB",
        "group": "iridium-33-debris",
        "lat": -58.0142071343599,
        "lon": 49.20659982474635,
        "alt_km": 764.0751821074819,
        "timestamp": "2025-12-25T22:42:17.398006+00:00",
        "meta_object_name": "IRIDIUM 33 DEB",
        "meta_object_id": "1997-051L",
        "meta_epoch": "2025-12-25T14:39:17.561952",
        "meta_mean_motion": 14.43283203,
        "meta_eccentricity": 0.0013294,
        "meta_inclination": 86.3997,
        "meta_ra_of_asc_node": 55.1348,
        "meta_arg_of_pericenter": 109.508,
        "meta_mean_anomaly": 250.7558,
        "meta_ephemeris_type": 0,
        "meta_classification_type": "U",
        "meta_norad_cat_id": 33773,
        "meta_element_set_no": 999,
        "meta_rev_at_epoch": 88533,
        "meta_bstar": 0.0002966,
        "meta_mean_motion_dot": 1.019e-05,
        "meta_mean_motion_ddot": 0,
        "tle_line1": "1 33773U 97051L   25359.61061993  .00001019  00000+0  29660-3 0  9990",
        "tle_line2": "2 33773  86.3997  55.1348 0013294 109.5080 250.7558 14.43283203885334"
      },
      "geometry": {
        "type": "Point",
        "coordinates": [
          49.20659982474635,
          -58.0142071343599
        ]
      }
    },
    {
      "type": "Feature",
      "properties": {
        "norad_id": 33775,
        "name": "IRIDIUM 33 DEB",
        "group": "iridium-33-debris",
        "lat": -59.357254889093085,
        "lon": 37.75007068420252,
        "alt_km": 771.6809037613257,
        "timestamp": "2025-12-25T22:42:17.398021+00:00",
        "meta_object_name": "IRIDIUM 33 DEB",
        "meta_object_id": "1997-051N",
        "meta_epoch": "2025-12-25T15:15:04.201056",
        "meta_mean_motion": 14.41495203,
        "meta_eccentricity": 0.0015345,
        "meta_inclination": 86.3624,
        "meta_ra_of_asc_node": 44.0472,
        "meta_arg_of_pericenter": 116.415,
        "meta_mean_anomaly": 13.4748,
        "meta_ephemeris_type": 0,
        "meta_classification_type": "U",
        "meta_norad_cat_id": 33775,
        "meta_element_set_no": 999,
        "meta_rev_at_epoch": 88326,
        "meta_bstar": 0.00032187,
        "meta_mean_motion_dot": 1.066e-05,
        "meta_mean_motion_ddot": 0,
        "tle_line1": "1 33775U 97051N   25359.63546529  .00001066  00000+0  32187-3 0  9997",
        "tle_line2": "2 33775  86.3624  44.0472 0015345 116.4150  13.4748 14.41495203883260"
      },
      "geometry": {
        "type": "Point",
        "coordinates": [
          37.75007068420252,
          -59.357254889093085
        ]
      }
    },
    {
      "type": "Feature",
      "properties": {
        "norad_id": 33776,
        "name": "IRIDIUM 33 DEB",
        "group": "iridium-33-debris",
        "lat": 16.303003012447085,
        "lon": 76.283967013217,
        "alt_km": 772.5333769028748,
        "timestamp": "2025-12-25T22:42:17.398033+00:00",
        "meta_object_name": "IRIDIUM 33 DEB",
        "meta_object_id": "1997-051P",
        "meta_epoch": "2025-12-25T18:12:32.556096",
        "meta_mean_motion": 14.38256901,
        "meta_eccentricity": 0.0015777,
        "meta_inclination": 86.4031,
        "meta_ra_of_asc_node": 75.3085,
        "meta_arg_of_pericenter": 149.2328,
        "meta_mean_anomaly": 338.0492,
        "meta_ephemeris_type": 0,
        "meta_classification_type": "U",
        "meta_norad_cat_id": 33776,
        "meta_element_set_no": 999,
        "meta_rev_at_epoch": 88269,
        "meta_bstar": 0.00026708,
        "meta_mean_motion_dot": 8.32e-06,
        "meta_mean_motion_ddot": 0,
        "tle_line1": "1 33776U 97051P   25359.75871014  .00000832  00000+0  26708-3 0  9993",
        "tle_line2": "2 33776  86.4031  75.3085 0015777 149.2328 338.0492 14.38256901882695"
      },
      "geometry": {
        "type": "Point",
        "coordinates": [
          76.283967013217,
          16.303003012447085
        ]
      }
    },
    {
      "type": "Feature",
      "properties": {
        "norad_id": 33777,
        "name": "IRIDIUM 33 DEB",
        "group": "iridium-33-debris",
        "lat": -86.24998379036246,
        "lon": -45.68525656747125,
        "alt_km": 713.5127284906248,
        "timestamp": "2025-12-25T22:42:17.398045+00:00",
        "meta_object_name": "IRIDIUM 33 DEB",
        "meta_object_id": "1997-051Q",
        "meta_epoch": "2025-12-25T11:33:55.339200",
        "meta_mean_motion": 14.55699365,
        "meta_eccentricity": 0.0006373,
        "meta_inclination": 86.3774,
        "meta_ra_of_asc_node": 29.6591,
        "meta_arg_of_pericenter": 195.6896,
        "meta_mean_anomaly": 164.4115,
        "meta_ephemeris_type": 0,
        "meta_classification_type": "U",
        "meta_norad_cat_id": 33777,
        "meta_element_set_no": 999,
        "meta_rev_at_epoch": 88719,
        "meta_bstar": 0.00081532,
        "meta_mean_motion_dot": 3.584e-05,
        "meta_mean_motion_ddot": 0,
        "tle_line1": "1 33777U 97051Q   25359.48189050  .00003584  00000+0  81532-3 0  9999",
        "tle_line2": "2 33777  86.3774  29.6591 0006373 195.6896 164.4115 14.55699365887197"
      },
      "geometry": {
        "type": "Point",
        "coordinates": [
          -45.68525656747125,
          -86.24998379036246
        ]
      }
    },
    {
      "type": "Feature",
      "properties": {
        "norad_id": 33850,
        "name": "IRIDIUM 33 DEB",
        "group": "iridium-33-debris",
        "lat": -46.29875705747161,
        "lon": 20.660827325316653,
        "alt_km": 767.447820921635,
        "timestamp": "2025-12-25T22:42:17.398056+00:00",
        "meta_object_name": "IRIDIUM 33 DEB",
        "meta_object_id": "1997-051T",
        "meta_epoch": "2025-12-25T13:32:16.366848",
        "meta_mean_motion": 14.42178357,
        "meta_eccentricity": 0.0013303,
        "meta_inclination": 86.3408,
        "meta_ra_of_asc_node": 24.6646,
        "meta_arg_of_pericenter": 122.9915,
        "meta_mean_anomaly": 8.9113,
        "meta_ephemeris_type": 0,
        "meta_classification_type": "U",
        "meta_norad_cat_id": 33850,
        "meta_element_set_no": 999,
        "meta_rev_at_epoch": 88337,
        "meta_bstar": 0.00042851,
        "meta_mean_motion_dot": 1.431e-05,
        "meta_mean_motion_ddot": 0,
        "tle_line1": "1 33850U 97051T   25359.56407832  .00001431  00000+0  42851-3 0  9991",
        "tle_line2": "2 33850  86.3408  24.6646 0013303 122.9915   8.9113 14.42178357883370"
      },
      "geometry": {
        "type": "Point",
        "coordinates": [
          20.660827325316653,
          -46.29875705747161
        ]
      }
    },
    {
      "type": "Feature",
      "properties": {
        "norad_id": 33853,
        "name": "IRIDIUM 33 DEB",
        "group": "iridium-33-debris",
        "lat": 85.99676831052402,
        "lon": 75.19471235912243,
        "alt_km": 925.6049515455506,
        "timestamp": "2025-12-25T22:42:17.398068+00:00",
        "meta_object_name": "IRIDIUM 33 DEB",
        "meta_object_id": "1997-051W",
        "meta_epoch": "2025-12-24T22:19:16.041792",
        "meta_mean_motion": 13.99120379,
        "meta_eccentricity": 0.0207734,
        "meta_inclination": 86.0001,
        "meta_ra_of_asc_node": 344.4648,
        "meta_arg_of_pericenter": 198.227,
        "meta_mean_anomaly": 179.9108,
        "meta_ephemeris_type": 0,
        "meta_classification_type": "U",
        "meta_norad_cat_id": 33853,
        "meta_element_set_no": 999,
        "meta_rev_at_epoch": 85516,
        "meta_bstar": 0.0011909,
        "meta_mean_motion_dot": 2.092e-05,
        "meta_mean_motion_ddot": 0,
        "tle_line1": "1 33853U 97051W   25358.93004678  .00002092  00000+0  11909-2 0  9998",
        "tle_line2": "2 33853  86.0001 344.4648 0207734 198.2270 179.9108 13.99120379855168"
      },
      "geometry": {
        "type": "Point",
        "coordinates": [
          75.19471235912243,
          85.99676831052402
        ]
      }
    }
  ]
}